#cP2014  4  3  0  0  0.00000000      96 ORBIT IGb08 HLM  IGS
## 1786 345600.00000000   900.00000000 56750 0.0000000000000
+   32   G01G02G03G04G05G06G07G08G09G10G11G12G13G14G15G16G17
+        G18G19G20G21G22G23G24G25G26G27G28G29G30G31G32  0  0
+          0  0  0  0  0  0  0  0  0  0  0  0  0  0  0  0  0
+          0  0  0  0  0  0  0  0  0  0  0  0  0  0  0  0  0
+          0  0  0  0  0  0  0  0  0  0  0  0  0  0  0  0  0
++         2  2  2  2  2  0  2  2  2  2  2  2  2  2  2  2  2
++         2  2  2  2  2  2  2  2  2  2  2  2  0  2  2  0  0
++         0  0  0  0  0  0  0  0  0  0  0  0  0  0  0  0  0
++         0  0  0  0  0  0  0  0  0  0  0  0  0  0  0  0  0
++         0  0  0  0  0  0  0  0  0  0  0  0  0  0  0  0  0
%c G  cc GPS ccc cccc cccc cccc cccc ccccc ccccc ccccc ccccc
%c cc cc ccc ccc cccc cccc cccc cccc ccccc ccccc ccccc ccccc
%f  1.2500000  1.025000000  0.00000000000  0.000000000000000
%f  0.0000000  0.000000000  0.00000000000  0.000000000000000
%i    0    0    0    0      0      0      0      0         0
%i    0    0    0    0      0      0      0      0         0
/* FINAL ORBIT COMBINATION FROM WEIGHTED AVERAGE OF:        
/* cod emr esa gfz grg jpl mit ngs sio                      
/* REFERENCED TO IGS TIME (IGST) AND TO WEIGHTED MEAN POLE: 
/* PCV:IGS08_1787 OL/AL:FES2004  NONE     Y  ORB:CMB CLK:CMB
*  2014  4  3 10 30  0.00000000
PG01   -506.357719  16091.810326 -21131.641586      6.989402  5  6  8 131       
PG02  20523.509083 -14785.939831   7483.515643    487.581854  8  4  4 132       
PG03  -7234.483329  23118.035073  10163.868303    346.920452  7  3  5  76       
PG04  25376.285282  -4966.185375  -6900.376444      6.403426  4  6  5 120       
PG05  10512.406879 -11409.289840  21523.380697   -380.986950  4  4  4 106       
PG06 -20713.082145  -2626.733555  16385.562049 999999.999999
PG07  14880.884540   9085.455101  20199.558989    331.135336  7  5     96       
PG08  22862.542340   3151.058883  13824.614777     12.678036  6  5  3  89       
PG09  23596.979530   -939.966344  11793.230001    317.299153  5  5  4 100       
PG10  22293.962532   5502.478429  13366.123407   -120.380083  7  5  5 116       
PG11  -5729.331102  21103.351127 -15421.219942   -477.525913  5  7  6 103       
PG12  -6305.870587 -19809.893235 -16721.023083    196.222221  8  5  5  92       
PG13   6444.025145  19676.287787  16408.003525     13.602464  8  5  4  81       
PG14 -14630.203859  -2854.111399 -21766.716717    184.928297  9  7  4 107       
PG15   3983.458400 -26041.962720   1675.736001   -171.807155  5     4  97       
PG16 -10711.737692   9997.759613  22121.193751   -224.927104  5  2  2 110       
PG17  14948.150423   1165.292357 -21655.972878    -81.879335  9  6  2 129       
PG18 -20361.210004 -17294.467435   1685.853266    310.990878  8  6  3 117       
PG19  -7698.784907  25033.381480   2422.539988   -448.747472  6  3  7 108       
PG20   8027.762021  19946.032358 -15825.150214    176.066356  7  5  4 116       
PG21 -17622.170174  -8026.997620  18998.732749   -353.143321  8  7  5 121       
PG22 -23131.173855  -8252.818671 -10111.701637    224.109303  5  5  5 115       
PG23    507.122186  25639.097118   6118.935635     -9.266984  7  4  4 109       
PG24   6186.810710 -17226.260568 -19233.928657    -26.053957  7  6  5 109       
PG25 -17015.617335 -19263.672797  -7031.052652     20.678975  6  5  5 118       
PG26  12478.442914 -20245.338511  10843.980818    119.837141  5  4  4 107       
PG27 -12459.610089  18778.774362  14013.915645    -20.286431  6  5  2  99       
PG28  21869.300955  12902.302343  -7414.195761    344.459853  6  6  3 105       
PG29  -6377.932328 -21056.069814  14958.917967    522.806473  9  4  6 102       
PG30  21972.752193   3737.628203  14454.669078 999999.999999
PG31 -25441.278692   7920.300601  -2022.732981    334.087786  8  6  6 108       
PG32  -4772.605936  15911.445024 -20762.172724   -456.813357  7  5  7 131       
*  2014  4  3 10 45  0.00000000
PG01  -2707.783757  16959.475676 -20255.039295      6.990888  6  5  8 118       
PG02  21283.038781 -14769.938734   4761.451065    487.583572  9  4  4 127       
PG03  -7588.611380  21748.414407  12541.282531    346.925207  6  3  4  86       
PG04  24669.682591  -4349.541938  -9485.933255      6.403741  4  6  5 115       
PG05  12484.405108  -9944.432170  21209.199591   -380.985078  5  5  4 111       
PG06 -22047.094003  -3800.293271  14323.776325 999999.999999
PG07  12738.693259  10033.749394  21166.014789    331.139357  7  5     99       
PG08  21300.193561   3699.290839  15982.915193     12.676988  6  5  2  93       
PG09  22238.532573   -171.414485  14118.546376    317.302400  5  5  3 103       
PG10  23300.432255   6551.966570  11072.560358   -120.381226  7  5  5 114       
PG11  -7145.402200  21934.500218 -13466.818087   -477.528869  5  7  6  96       
PG12  -4686.732682 -18648.703997 -18481.550749    196.224367  8  5  5 101       
PG13   5908.988292  21385.993554  14344.781438     13.598877  8  5  4  93       
PG14 -14165.063144  -5336.696543 -21621.109444    184.924948 10  7  4 113       
PG15   4298.836735 -25656.340512   4470.784658   -171.809107  6     4  94       
PG16 -12646.928264   8396.153975  21795.149115   -224.925601  5  3  2 101       
PG17  14576.378158   3669.515169 -21650.154457    -81.881966  9  6  1 129       
PG18 -19930.353678 -17378.159874   4423.970304    310.993092  7  6  3 111       
PG19  -7876.609139  24527.457517   5267.491997   -448.749559  6  3  6 104       
PG20   6328.399582  19102.980763 -17555.413761    176.069700  6  5  4 113       
PG21 -15733.684582  -8993.300402  20184.056413   -353.144941  8  7  5 122       
PG22 -23787.534174  -9119.731493  -7594.989376    224.111633  4  5  5 110       
PG23    142.064611  26136.014202   3325.919959     -9.269886  7  4  4 113       
PG24   8173.341408 -17969.407430 -17745.499146    -26.054850  7  6  4 130       
PG25 -16143.205155 -18858.521896  -9693.116948     20.679967  6  5  5 111       
PG26  12386.200210 -18751.083720  13254.727245    119.826938  6  4  4 105       
PG27 -12461.468057  17045.321909  16080.003205    -20.286081  6  4  2 112       
PG28  22338.637083  13520.251878  -4626.155896    344.462420  6  6  4  88       
PG29  -5953.610541 -22583.129991  12739.238476    522.808799  8  4  6 114       
PG30  20362.416431   4492.910674  16456.282447 999999.999999
PG31 -25131.909303   7601.246246  -4859.762093    334.087920  8  6  6 108       
PG32  -6621.410871  14351.980745 -21332.677436   -456.806452  7  3  7 128       
*  2014  4  3 11  0  0.00000000
PG01  -4756.182762  17887.092992 -19029.741933      6.992364  6  5  7 122       
PG02  21767.786696 -14638.322545   1955.400217    487.585257  9  5  5 126       
PG03  -8035.564393  20135.861123  14694.528136    346.930860  6  3  4  77       
PG04  23746.413630  -3571.398147 -11912.329943      6.403874  4  6  4 111       
PG05  14478.538260  -8611.379016  20529.405315   -380.983121  6  6  4 102       
PG06 -23236.410484  -4758.933638  12015.593979 999999.999999
PG07  10569.285821  11137.713736  21772.477227    331.143177  7  4     89       
PG08  19558.967440   4419.093788  17875.994076     12.676101  6  6  2  85       
PG09  20696.730894    790.003998  16194.786192    317.304739  5  5  2 104       
PG10  24132.677416   7396.648347   8589.601793   -120.382039  7  4  4 109       
PG11  -8368.697003  22661.921053 -11284.602879   -477.531857  5  7  5  92       
PG12  -2854.704937 -17477.227455 -19927.957231    196.226717  7  5  4 106       
PG13   5506.169290  22874.998767  12030.769869     13.595302  7  5  5  95       
PG14 -13837.286594  -7800.681804 -21096.392557    184.922069 10  6  4 107       
PG15   4627.490240 -24972.979757   7187.434596   -171.810949  7  2  4  80       
PG16 -14619.463675   6942.841073  21094.101191   -224.923986  5  3  3 110       
PG17  14338.934313   6164.895598 -21263.132399    -81.884999 10  5  2 122       
PG18 -19252.833988 -17318.292866   7088.081085    310.995083  7  5  3 106       
PG19  -8035.169134  23713.562570   8019.006400   -448.751773  6  2  6  96       
PG20   4437.793473  18254.241883 -18988.457015    176.072986  7  6  4  95       
PG21 -13794.936013 -10104.365067  21043.290030   -353.147111  7  6  5 119       
PG22 -24238.855446  -9796.362901  -4947.886254    224.114038  3  5  5 106       
PG23   -179.527036  26329.114096    474.279618     -9.272780  6  4  5 108       
PG24   9955.295007 -18727.386835 -15951.161126    -26.054657  7  6  4 121       
PG25 -15004.472831 -18344.972417 -12190.028150     20.680954  7  5  6 120       
PG26  12336.216031 -16987.359450  15424.817518    119.816927  6  4  4 102       
PG27 -12543.766202  15096.385807  17868.757944    -20.285732  6  4  2 119       
PG28  22583.861450  13915.349949  -1758.050474    344.465221  7  6  4  90       
PG29  -5637.673330 -23868.747287  10301.375372    522.811425  8  4  6 114       
PG30  18599.013962   5411.875508  18174.810580 999999.999999
PG31 -24556.514023   7127.839779  -7614.452363    334.087827  8  6  5 100       
PG32  -8585.189304  12857.324721 -21535.689966   -456.799674  7  2  7 131       
EOF
